STARLINK-6247           
1 57086U 23088AQ  26200.06533875  .00007274  00000+0  27347-3 0  9999
2 57086  43.0016  74.0931 0001426 241.1677 118.9031 15.27592648170591
STARLINK-6251           
1 57087U 23088AR  26200.37300940  .00000388  00000+0  23631-4 0  9991
2 57087  43.0056  72.1031 0001645 274.1928  85.8736 15.27577041170644
STARLINK-6257           
1 57088U 23088AS  26200.33075382 -.00000596  00000+0 -12135-4 0  9997
2 57088  43.0029  72.6419 0001573 250.4430 109.6251 15.27568241170633
STARLINK-6259           
1 57089U 23088AT  26199.93329645  .00000370  00000+0  22963-4 0  9993
2 57089  43.0020  74.8172 0001375 261.4077  98.6619 15.27576232170571
STARLINK-6254           
1 57090U 23088AU  26200.04992412 -.00000131  00000+0  47695-5 0  9994
2 57090  43.0041  73.9746 0001788 260.3585  99.7065 15.27580593170597
STARLINK-6262           
1 57091U 23088AV  26200.64483921  .00000232  00000+0  17960-4 0  9993
2 57091  43.0041  70.6982 0001306 270.7123  89.3579 15.27576023170681
STARLINK-6225           
1 57092U 23088AW  26200.05250584  .00000661  00000+0  33559-4 0  9994
2 57092  43.0049  73.9954 0001449 266.5216  93.5470 15.27572953170594
STARLINK-6229           
1 57093U 23088AX  26199.67562425 -.00000606  00000+0 -12499-4 0  9991
2 57093  43.0022  76.3232 0001338 269.5573  90.5125 15.27573880170536
STARLINK-6235           
1 57094U 23088AY  26200.07178577  .00000522  00000+0  28471-4 0  9992
2 57094  43.0024  74.1320 0001222 258.3073 101.7642 15.27586457170595
STARLINK-6132           
1 57101U 23090A   26200.19482774  .00000103  00000+0  13265-4 0  9994
2 57101  43.0008 258.9542 0001363 273.8849  86.1847 15.27575508170445
STARLINK-6111           
1 57102U 23090B   26200.46408455  .00000165  00000+0  15513-4 0  9995
2 57102  43.0020 257.5373 0001184 301.5578  58.5158 15.27575715170488
STARLINK-6130           
1 57104U 23090D   26200.52561582 -.00000381  00000+0 -43142-5 0  9997
2 57104  43.0018 257.1372 0001313 273.1223  86.9479 15.27575103170489
STARLINK-6097           
1 57105U 23090E   26200.20510926  .00000188  00000+0  16363-4 0  9996
2 57105  43.0022 259.0274 0001147 278.7529  81.3193 15.27573625170447
STARLINK-6118           
1 57106U 23090F   26200.45509354  .00000914  00000+0  42728-4 0  9998
2 57106  43.0012 257.4661 0000915 246.5850 113.4905 15.27566140170487
STARLINK-6131           
1 57107U 23090G   26200.23453049  .00000859  00000+0  40737-4 0  9990
2 57107  43.0018 258.3875 0001625 270.1648  89.9017 15.27576259170458
STARLINK-6099           
1 57108U 23090H   26200.45124818 -.00004784  00000+0 -16436-3 0  9995
2 57108  43.0016 257.4350 0001321 287.4523  72.6184 15.27593362170482
STARLINK-6139           
1 57109U 23090J   26199.56923241  .00000328  00000+0  21467-4 0  9991
2 57109  43.0040 262.8519 0002064 289.6648  70.3981 15.27575906170343
STARLINK-6134           
1 57110U 23090K   26200.44738406  .00000297  00000+0  20325-4 0  9997
2 57110  43.0004 257.4107 0000857 270.4049  89.6704 15.27577377170484
STARLINK-6140           
1 57111U 23090L   26198.67682512  .00001082  00000+0  48845-4 0  9995
2 57111  43.0022 267.3388 0001877 268.4325  91.6311 15.27568802170214
STARLINK-6141           
1 57112U 23090M   26200.19741471  .00003847  00000+0  14939-3 0  9994
2 57112  43.0008 258.9708 0000644 255.0196 105.0584 15.27548842170449
STARLINK-6142           
1 57113U 23090N   26200.49991963  .00000887  00000+0  41771-4 0  9997
2 57113  43.0018 256.9418 0001434 278.3662  81.7027 15.27575229170497
STARLINK-6125           
1 57114U 23090P   26200.56919119  .00022605  00000+0  83154-3 0  9991
2 57114  43.0008 256.6006 0000618 192.2048 167.8788 15.27457726170505
STARLINK-6085           
1 57115U 23090Q   26200.45869483  .00013532  00000+0  65018-3 0  9996
2 57115  42.9960 252.4477 0020402 332.7492  27.2284 15.18534597170540
STARLINK-6129           
1 57116U 23090R   26200.42683767  .00001133  00000+0  50701-4 0  9991
2 57116  43.0005 257.2560 0001462 266.4042  93.6642 15.27566723170482
STARLINK-6148           
1 57117U 23090S   26200.49348621  .00000414  00000+0  24579-4 0  9991
2 57117  43.0017 256.8934 0001593 295.3944  64.6743 15.27582286170485
STARLINK-6150           
1 57119U 23090U   26200.46795101  .00000437  00000+0  25403-4 0  9991
2 57119  43.0024 257.5526 0001287 270.5200  89.5504 15.27577296170486
STARLINK-6147           
1 57120U 23090V   26200.51019596 -.00000220  00000+0  15151-5 0  9997
2 57120  43.0008 257.0133 0001346 271.0307  89.0390 15.27579200170495
STARLINK-6152           
1 57121U 23090W   26200.42553349  .00000238  00000+0  18187-4 0  9996
2 57121  43.0002 257.2376 0001580 268.5112  91.5558 15.27575027170291
STARLINK-6149           
1 57122U 23090X   26200.21410072 -.00000018  00000+0  88783-5 0  9996
2 57122  43.0031 259.0862 0001313 289.6519  70.4191 15.27576310170445
STARLINK-6154           
1 57123U 23090Y   26200.51790449 -.00000544  00000+0 -10246-4 0  9992
2 57123  43.0010 257.0671 0001289 269.9887  90.0817 15.27575241170300
