OBJECT_NAME,OBJECT_ID,EPOCH,MEAN_MOTION,ECCENTRICITY,INCLINATION,RA_OF_ASC_NODE,ARG_OF_PERICENTER,MEAN_ANOMALY,EPHEMERIS_TYPE,CLASSIFICATION_TYPE,NORAD_CAT_ID,ELEMENT_SET_NO,REV_AT_EPOCH,BSTAR,MEAN_MOTION_DOT,MEAN_MOTION_DDOT
STARLINK-6247,2023-088AQ,2026-07-19T01:34:05.268000,15.27592648,.00014265,43.0016,74.0931,241.1677,118.9031,0,U,57086,999,17059,.27347165E-3,.7274E-4,0
STARLINK-6251,2023-088AR,2026-07-19T08:57:08.012160,15.27577041,.00016454,43.0056,72.1031,274.1928,85.8736,0,U,57087,999,17064,.23631134E-4,.388E-5,0
STARLINK-6257,2023-088AS,2026-07-19T07:56:17.130048,15.27568241,.00015731,43.0029,72.6419,250.4430,109.6251,0,U,57088,999,17063,-.12135422E-4,-.596E-5,0
STARLINK-6259,2023-088AT,2026-07-18T22:23:56.813280,15.27576232,.00013756,43.0020,74.8172,261.4077,98.6619,0,U,57089,999,17057,.2296323E-4,.37E-5,0
STARLINK-6254,2023-088AU,2026-07-19T01:11:53.443968,15.27580593,.00017885,43.0041,73.9746,260.3585,99.7065,0,U,57090,999,17059,.4769474E-5,-.131E-5,0
STARLINK-6262,2023-088AV,2026-07-19T15:28:34.107744,15.27576023,.00013067,43.0041,70.6982,270.7123,89.3579,0,U,57091,999,17068,.17959912E-4,.232E-5,0
STARLINK-6225,2023-088AW,2026-07-19T01:15:36.504576,15.27572953,.00014499,43.0049,73.9954,266.5216,93.5470,0,U,57092,999,17059,.33558834E-4,.661E-5,0
STARLINK-6229,2023-088AX,2026-07-18T16:12:53.935200,15.27573880,.00013387,43.0022,76.3232,269.5573,90.5125,0,U,57093,999,17053,-.12499162E-4,-.606E-5,0
STARLINK-6235,2023-088AY,2026-07-19T01:43:22.290528,15.27586457,.00012229,43.0024,74.1320,258.3073,101.7642,0,U,57094,999,17059,.28470714E-4,.522E-5,0
STARLINK-6132,2023-090A,2026-07-19T04:40:33.116736,15.27575508,.00013636,43.0008,258.9542,273.8849,86.1847,0,U,57101,999,17044,.1326487E-4,.103E-5,0
STARLINK-6111,2023-090B,2026-07-19T11:08:16.905120,15.27575715,.00011845,43.0020,257.5373,301.5578,58.5158,0,U,57102,999,17048,.1551336E-4,.165E-5,0
STARLINK-6130,2023-090D,2026-07-19T12:36:53.206848,15.27575103,.00013131,43.0018,257.1372,273.1223,86.9479,0,U,57104,999,17048,-.4314169E-5,-.381E-5,0
STARLINK-6097,2023-090E,2026-07-19T04:55:21.440064,15.27573625,.00011472,43.0022,259.0274,278.7529,81.3193,0,U,57105,999,17044,.16362822E-4,.188E-5,0
STARLINK-6118,2023-090F,2026-07-19T10:55:20.081856,15.27566140,.00009157,43.0012,257.4661,246.5850,113.4905,0,U,57106,999,17048,.42727916E-4,.914E-5,0
STARLINK-6131,2023-090G,2026-07-19T05:37:43.434336,15.27576259,.00016251,43.0018,258.3875,270.1648,89.9017,0,U,57107,999,17045,.40737247E-4,.859E-5,0
STARLINK-6099,2023-090H,2026-07-19T10:49:47.842752,15.27593362,.00013217,43.0016,257.4350,287.4523,72.6184,0,U,57108,999,17048,-.16435505E-3,-.4784E-4,0
STARLINK-6139,2023-090J,2026-07-18T13:39:41.680224,15.27575906,.0002064,43.0040,262.8519,289.6648,70.3981,0,U,57109,999,17034,.21467E-4,.328E-5,0
STARLINK-6134,2023-090K,2026-07-19T10:44:13.982784,15.27577377,.00008579,43.0004,257.4107,270.4049,89.6704,0,U,57110,999,17048,.20325371E-4,.297E-5,0
STARLINK-6140,2023-090L,2026-07-17T16:14:37.690368,15.27568802,.00018774,43.0022,267.3388,268.4325,91.6311,0,U,57111,999,17021,.48845283E-4,.1082E-4,0
STARLINK-6141,2023-090M,2026-07-19T04:44:16.630944,15.27548842,.00006449,43.0008,258.9708,255.0196,105.0584,0,U,57112,999,17044,.14938989E-3,.3847E-4,0
STARLINK-6142,2023-090N,2026-07-19T11:59:53.056032,15.27575229,.00014348,43.0018,256.9418,278.3662,81.7027,0,U,57113,999,17049,.41770632E-4,.887E-5,0
STARLINK-6125,2023-090P,2026-07-19T13:39:38.118816,15.27457726,.00006181,43.0008,256.6006,192.2048,167.8788,0,U,57114,999,17050,.83154499E-3,.22605E-3,0
STARLINK-6085,2023-090Q,2026-07-19T11:00:31.233312,15.18534597,.00204024,42.9960,252.4477,332.7492,27.2284,0,U,57115,999,17054,.65018398E-3,.13532E-3,0
STARLINK-6129,2023-090R,2026-07-19T10:14:38.774688,15.27566723,.00014629,43.0005,257.2560,266.4042,93.6642,0,U,57116,999,17048,.50701283E-4,.1133E-4,0
STARLINK-6148,2023-090S,2026-07-19T11:50:37.208544,15.27582286,.00015934,43.0017,256.8934,295.3944,64.6743,0,U,57117,999,17048,.24579331E-4,.414E-5,0
STARLINK-6150,2023-090U,2026-07-19T11:13:50.967264,15.27577296,.00012875,43.0024,257.5526,270.5200,89.5504,0,U,57119,999,17048,.25402703E-4,.437E-5,0
STARLINK-6147,2023-090V,2026-07-19T12:14:40.930944,15.27579200,.00013463,43.0008,257.0133,271.0307,89.0390,0,U,57120,999,17049,.1515062E-5,-.22E-5,0
STARLINK-6152,2023-090W,2026-07-19T10:12:46.093536,15.27575027,.00015807,43.0002,257.2376,268.5112,91.5558,0,U,57121,999,17029,.18186881E-4,.238E-5,0
STARLINK-6149,2023-090X,2026-07-19T05:08:18.302208,15.27576310,.00013135,43.0031,259.0862,289.6519,70.4191,0,U,57122,999,17044,.8878342E-5,-.18E-6,0
STARLINK-6154,2023-090Y,2026-07-19T12:25:46.947936,15.27575241,.00012893,43.0010,257.0671,269.9887,90.0817,0,U,57123,999,17030,-.10245806E-4,-.544E-5,0
